H-2A R/B                
1 38341U 12025E   25323.80629124  .00003818  00000+0  35562-3 0  9999
2 38341  98.4558 277.2764 0044394 313.4723  46.2807 14.94222743731806
SHIJIAN-16 (SJ-16)      
1 39358U 13057A   25323.86994294  .00002466  00000+0  24613-3 0  9996
2 39358  74.9749  32.9233 0016723  14.6775 345.4895 14.91889531655127
SL-4 R/B                
1 39679U 14021B   25323.58773422  .00013217  00000+0  32189-3 0  9994
2 39679  51.6056 153.0411 0103601  62.9493 298.2018 15.35861717639336
ALOS-2                  
1 39766U 14029A   25323.81550434  .00002342  00000+0  32043-3 0  9997
2 39766  97.9239  58.9876 0001441 100.3293 259.8081 14.79470397620623
YAOGAN-29               
1 41038U 15069A   25323.87704672  .00000634  00000+0  85030-4 0  9995
2 41038  98.0241 346.9729 0001740  35.5308 324.6021 14.82846926539609
ASTRO-H (HITOMI)        
1 41337U 16012A   25323.74095830  .00003042  00000+0  18109-3 0  9999
2 41337  31.0014 345.6134 0009839 305.6507  54.3214 15.09151234535609
HXMT (HUIYAN)           
1 42758U 17034A   25323.86368242  .00009337  00000+0  48289-3 0  9990
2 42758  43.0151 266.5435 0034168 260.9431  98.7549 15.15934456465864
CZ-2C R/B               
1 43521U 18054D   25323.48247571  .00095068  00000+0  77415-3 0  9990
2 43521  35.1359 337.9826 0022705 272.6371  87.1761 15.69022195411393
SAOCOM 1A               
1 43641U 18076A   25323.85330053  .00000753  00000+0  10111-3 0  9993
2 43641  97.8852 148.6079 0001555  91.9330 268.2061 14.82141535385099
H-2A R/B                
1 43682U 18084L   25323.77338380  .00015802  00000+0  44315-3 0  9993
2 43682  98.8787 153.1135 0028924  44.5165 315.8391 15.36288001388879
SAOCOM 1B               
1 46265U 20059A   25323.81708266  .00000223  00000+0  34516-4 0  9991
2 46265  97.8848 147.6740 0001342  89.3797 270.7570 14.82149453282473
CSS (TIANHE)            
1 48274U 21035A   25323.84131752  .00018215  00000+0  22811-3 0  9995
2 48274  41.4652 155.6342 0007353 198.6203 161.4367 15.59322159260459
