CCSDS_OMM_VERS = 2.0
CREATION_DATE  = 
ORIGINATOR     = 

OBJECT_NAME    = H-2A R/B
OBJECT_ID      = 2012-025E
CENTER_NAME    = EARTH
REF_FRAME      = TEME
TIME_SYSTEM    = UTC
MEAN_ELEMENT_THEORY = SGP/SGP4

EPOCH          = 2025-11-19T19:21:03.563136
MEAN_MOTION    = 14.94222743
ECCENTRICITY   = .0044394
INCLINATION    = 98.4558
RA_OF_ASC_NODE = 277.2764
ARG_OF_PERICENTER = 313.4723
MEAN_ANOMALY   = 46.2807

EPHEMERIS_TYPE = 0
CLASSIFICATION_TYPE = U
NORAD_CAT_ID   = 38341
ELEMENT_SET_NO = 999
REV_AT_EPOCH   = 73180
BSTAR          = .35562E-3
MEAN_MOTION_DOT = .3818E-4
MEAN_MOTION_DDOT = 0

CCSDS_OMM_VERS = 2.0
CREATION_DATE  = 
ORIGINATOR     = 

OBJECT_NAME    = SHIJIAN-16 (SJ-16)
OBJECT_ID      = 2013-057A
CENTER_NAME    = EARTH
REF_FRAME      = TEME
TIME_SYSTEM    = UTC
MEAN_ELEMENT_THEORY = SGP/SGP4

EPOCH          = 2025-11-19T20:52:43.070016
MEAN_MOTION    = 14.91889531
ECCENTRICITY   = .0016723
INCLINATION    = 74.9749
RA_OF_ASC_NODE = 32.9233
ARG_OF_PERICENTER = 14.6775
MEAN_ANOMALY   = 345.4895

EPHEMERIS_TYPE = 0
CLASSIFICATION_TYPE = U
NORAD_CAT_ID   = 39358
ELEMENT_SET_NO = 999
REV_AT_EPOCH   = 65512
BSTAR          = .24613E-3
MEAN_MOTION_DOT = .2466E-4
MEAN_MOTION_DDOT = 0

CCSDS_OMM_VERS = 2.0
CREATION_DATE  = 
ORIGINATOR     = 

OBJECT_NAME    = SL-4 R/B
OBJECT_ID      = 2014-021B
CENTER_NAME    = EARTH
REF_FRAME      = TEME
TIME_SYSTEM    = UTC
MEAN_ELEMENT_THEORY = SGP/SGP4

EPOCH          = 2025-11-19T14:06:20.236608
MEAN_MOTION    = 15.35861717
ECCENTRICITY   = .0103601
INCLINATION    = 51.6056
RA_OF_ASC_NODE = 153.0411
ARG_OF_PERICENTER = 62.9493
MEAN_ANOMALY   = 298.2018

EPHEMERIS_TYPE = 0
CLASSIFICATION_TYPE = U
NORAD_CAT_ID   = 39679
ELEMENT_SET_NO = 999
REV_AT_EPOCH   = 63933
BSTAR          = .32189E-3
MEAN_MOTION_DOT = .13217E-3
MEAN_MOTION_DDOT = 0

CCSDS_OMM_VERS = 2.0
CREATION_DATE  = 
ORIGINATOR     = 

OBJECT_NAME    = ALOS-2
OBJECT_ID      = 2014-029A
CENTER_NAME    = EARTH
REF_FRAME      = TEME
TIME_SYSTEM    = UTC
MEAN_ELEMENT_THEORY = SGP/SGP4

EPOCH          = 2025-11-19T19:34:19.574976
MEAN_MOTION    = 14.79470397
ECCENTRICITY   = .0001441
INCLINATION    = 97.9239
RA_OF_ASC_NODE = 58.9876
ARG_OF_PERICENTER = 100.3293
MEAN_ANOMALY   = 259.8081

EPHEMERIS_TYPE = 0
CLASSIFICATION_TYPE = U
NORAD_CAT_ID   = 39766
ELEMENT_SET_NO = 999
REV_AT_EPOCH   = 62062
BSTAR          = .32043E-3
MEAN_MOTION_DOT = .2342E-4
MEAN_MOTION_DDOT = 0

CCSDS_OMM_VERS = 2.0
CREATION_DATE  = 
ORIGINATOR     = 

OBJECT_NAME    = YAOGAN-29
OBJECT_ID      = 2015-069A
CENTER_NAME    = EARTH
REF_FRAME      = TEME
TIME_SYSTEM    = UTC
MEAN_ELEMENT_THEORY = SGP/SGP4

EPOCH          = 2025-11-19T21:02:56.836608
MEAN_MOTION    = 14.82846926
ECCENTRICITY   = .000174
INCLINATION    = 98.0241
RA_OF_ASC_NODE = 346.9729
ARG_OF_PERICENTER = 35.5308
MEAN_ANOMALY   = 324.6021

EPHEMERIS_TYPE = 0
CLASSIFICATION_TYPE = U
NORAD_CAT_ID   = 41038
ELEMENT_SET_NO = 999
REV_AT_EPOCH   = 53960
BSTAR          = .8503E-4
MEAN_MOTION_DOT = .634E-5
MEAN_MOTION_DDOT = 0

CCSDS_OMM_VERS = 2.0
CREATION_DATE  = 
ORIGINATOR     = 

OBJECT_NAME    = ASTRO-H (HITOMI)
OBJECT_ID      = 2016-012A
CENTER_NAME    = EARTH
REF_FRAME      = TEME
TIME_SYSTEM    = UTC
MEAN_ELEMENT_THEORY = SGP/SGP4

EPOCH          = 2025-11-19T17:46:58.797120
MEAN_MOTION    = 15.09151234
ECCENTRICITY   = .0009839
INCLINATION    = 31.0014
RA_OF_ASC_NODE = 345.6134
ARG_OF_PERICENTER = 305.6507
MEAN_ANOMALY   = 54.3214

EPHEMERIS_TYPE = 0
CLASSIFICATION_TYPE = U
NORAD_CAT_ID   = 41337
ELEMENT_SET_NO = 999
REV_AT_EPOCH   = 53560
BSTAR          = .18109E-3
MEAN_MOTION_DOT = .3042E-4
MEAN_MOTION_DDOT = 0

CCSDS_OMM_VERS = 2.0
CREATION_DATE  = 
ORIGINATOR     = 

OBJECT_NAME    = HXMT (HUIYAN)
OBJECT_ID      = 2017-034A
CENTER_NAME    = EARTH
REF_FRAME      = TEME
TIME_SYSTEM    = UTC
MEAN_ELEMENT_THEORY = SGP/SGP4

EPOCH          = 2025-11-19T20:43:42.161088
MEAN_MOTION    = 15.15934456
ECCENTRICITY   = .0034168
INCLINATION    = 43.0151
RA_OF_ASC_NODE = 266.5435
ARG_OF_PERICENTER = 260.9431
MEAN_ANOMALY   = 98.7549

EPHEMERIS_TYPE = 0
CLASSIFICATION_TYPE = U
NORAD_CAT_ID   = 42758
ELEMENT_SET_NO = 999
REV_AT_EPOCH   = 46586
BSTAR          = .48289E-3
MEAN_MOTION_DOT = .9337E-4
MEAN_MOTION_DDOT = 0

CCSDS_OMM_VERS = 2.0
CREATION_DATE  = 
ORIGINATOR     = 

OBJECT_NAME    = CZ-2C R/B
OBJECT_ID      = 2018-054D
CENTER_NAME    = EARTH
REF_FRAME      = TEME
TIME_SYSTEM    = UTC
MEAN_ELEMENT_THEORY = SGP/SGP4

EPOCH          = 2025-11-19T11:34:45.901344
MEAN_MOTION    = 15.69022195
ECCENTRICITY   = .0022705
INCLINATION    = 35.1359
RA_OF_ASC_NODE = 337.9826
ARG_OF_PERICENTER = 272.6371
MEAN_ANOMALY   = 87.1761

EPHEMERIS_TYPE = 0
CLASSIFICATION_TYPE = U
NORAD_CAT_ID   = 43521
ELEMENT_SET_NO = 999
REV_AT_EPOCH   = 41139
BSTAR          = .77415E-3
MEAN_MOTION_DOT = .95068E-3
MEAN_MOTION_DDOT = 0

CCSDS_OMM_VERS = 2.0
CREATION_DATE  = 
ORIGINATOR     = 

OBJECT_NAME    = SAOCOM 1A
OBJECT_ID      = 2018-076A
CENTER_NAME    = EARTH
REF_FRAME      = TEME
TIME_SYSTEM    = UTC
MEAN_ELEMENT_THEORY = SGP/SGP4

EPOCH          = 2025-11-19T20:28:45.165792
MEAN_MOTION    = 14.82141535
ECCENTRICITY   = .0001555
INCLINATION    = 97.8852
RA_OF_ASC_NODE = 148.6079
ARG_OF_PERICENTER = 91.9330
MEAN_ANOMALY   = 268.2061

EPHEMERIS_TYPE = 0
CLASSIFICATION_TYPE = U
NORAD_CAT_ID   = 43641
ELEMENT_SET_NO = 999
REV_AT_EPOCH   = 38509
BSTAR          = .10111E-3
MEAN_MOTION_DOT = .753E-5
MEAN_MOTION_DDOT = 0

CCSDS_OMM_VERS = 2.0
CREATION_DATE  = 
ORIGINATOR     = 

OBJECT_NAME    = H-2A R/B
OBJECT_ID      = 2018-084L
CENTER_NAME    = EARTH
REF_FRAME      = TEME
TIME_SYSTEM    = UTC
MEAN_ELEMENT_THEORY = SGP/SGP4

EPOCH          = 2025-11-19T18:33:40.360320
MEAN_MOTION    = 15.36288001
ECCENTRICITY   = .0028924
INCLINATION    = 98.8787
RA_OF_ASC_NODE = 153.1135
ARG_OF_PERICENTER = 44.5165
MEAN_ANOMALY   = 315.8391

EPHEMERIS_TYPE = 0
CLASSIFICATION_TYPE = U
NORAD_CAT_ID   = 43682
ELEMENT_SET_NO = 999
REV_AT_EPOCH   = 38887
BSTAR          = .44315E-3
MEAN_MOTION_DOT = .15802E-3
MEAN_MOTION_DDOT = 0

CCSDS_OMM_VERS = 2.0
CREATION_DATE  = 
ORIGINATOR     = 

OBJECT_NAME    = SAOCOM 1B
OBJECT_ID      = 2020-059A
CENTER_NAME    = EARTH
REF_FRAME      = TEME
TIME_SYSTEM    = UTC
MEAN_ELEMENT_THEORY = SGP/SGP4

EPOCH          = 2025-11-19T19:36:35.941824
MEAN_MOTION    = 14.82149453
ECCENTRICITY   = .0001342
INCLINATION    = 97.8848
RA_OF_ASC_NODE = 147.6740
ARG_OF_PERICENTER = 89.3797
MEAN_ANOMALY   = 270.7570

EPHEMERIS_TYPE = 0
CLASSIFICATION_TYPE = U
NORAD_CAT_ID   = 46265
ELEMENT_SET_NO = 999
REV_AT_EPOCH   = 28247
BSTAR          = .34516E-4
MEAN_MOTION_DOT = .223E-5
MEAN_MOTION_DDOT = 0

CCSDS_OMM_VERS = 2.0
CREATION_DATE  = 
ORIGINATOR     = 

OBJECT_NAME    = CSS (TIANHE)
OBJECT_ID      = 2021-035A
CENTER_NAME    = EARTH
REF_FRAME      = TEME
TIME_SYSTEM    = UTC
MEAN_ELEMENT_THEORY = SGP/SGP4

EPOCH          = 2025-11-19T20:11:29.833728
MEAN_MOTION    = 15.59322159
ECCENTRICITY   = .0007353
INCLINATION    = 41.4652
RA_OF_ASC_NODE = 155.6342
ARG_OF_PERICENTER = 198.6203
MEAN_ANOMALY   = 161.4367

EPHEMERIS_TYPE = 0
CLASSIFICATION_TYPE = U
NORAD_CAT_ID   = 48274
ELEMENT_SET_NO = 999
REV_AT_EPOCH   = 26045
BSTAR          = .22811E-3
MEAN_MOTION_DOT = .18215E-3
MEAN_MOTION_DDOT = 0

